     2.11           G: GLONASS NAV DATA                     RINEX VERSION / TYPE
NetR9 5.37          Receiver Operator   17-MAY-20 00:00:01  PGM / RUN BY / DATE
    18                                                      LEAP SECONDS
                                                            END OF HEADER
 1 20  5 16 23 45  0.0  .616256147623D-04  .000000000000D+00  .863700000000D+05
     .112883037109D+05 -.343304634094D+00  .931322574615D-09  .000000000000D+00
    -.703167480469D+04  .295871639252D+01 -.186264514923D-08  .100000000000D+01
     .217709248047D+05  .113555812836D+01 -.186264514923D-08  .000000000000D+00
 2 20  5 16 23 45  0.0  .427004881203D-03  .181898940355D-11  .863700000000D+05
     .622387207031D+04 -.279311180115D+00  .186264514923D-08  .000000000000D+00
    -.238167133789D+05  .900502204895D+00 -.931322574615D-09 -.400000000000D+01
     .683709716797D+04  .340876007080D+01  .000000000000D+00  .000000000000D+00
 1 20  5 17  0 15  0.0  .616265460849D-04  .000000000000D+00  .000000000000D+00
     .110521406250D+05  .901031494141D-01  .000000000000D+00  .000000000000D+00
    -.150000781250D+04  .313748359680D+01 -.931322574615D-09  .100000000000D+01
     .229475048828D+05  .163331031799D+00 -.186264514923D-08  .000000000000D+00
 2 20  5 17  0 15  0.0  .427009537816D-03  .181898940355D-11  .000000000000D+00
     .581808789062D+04 -.133269309998D+00  .186264514923D-08  .000000000000D+00
    -.214400468750D+05  .172041034698D+01 -.186264514923D-08 -.400000000000D+01
     .126309594727D+05  .298733425140D+01 -.931322574615D-09  .000000000000D+00
